[
    {
        "Altitude(m)": 554417.1349138007,
        "Argument of Periapsis(deg)": 0.0,
        "Eccentricity": 0.0,
        "Inclination(deg)": 53.0,
        "Latitude(deg)": 25.65231222851031,
        "Longitude(deg)": 83.93631194140181,
        "Mean Anomaly(deg)": 147.2727,
        "RAAN(deg)": 25.0,
        "Satellite Name": "Starlink Shell 1 119",
        "Satellite Number": 119,
        "Semi-Major Axis(m)": 6931778.249405717,
        "Time(s)": 0
    },
    {
        "Altitude(m)": 554357.0847696796,
        "Argument of Periapsis(deg)": 0.00034857847951123687,
        "Eccentricity": 0.0,
        "Inclination(deg)": 53.0,
        "Latitude(deg)": 25.18208685367701,
        "Longitude(deg)": 84.35630784984042,
        "Mean Anomaly(deg)": 147.8995312035567,
        "RAAN(deg)": 24.999481229922527,
        "Satellite Name": "Starlink Shell 1 119",
        "Satellite Number": 119,
        "Semi-Major Axis(m)": 6931778.249405717,
        "Time(s)": 10
    },
    {
        "Altitude(m)": 554298.6314348173,
        "Argument of Periapsis(deg)": 0.0006971569590224737,
        "Eccentricity": 0.0,
        "Inclination(deg)": 53.0,
        "Latitude(deg)": 24.710405598558008,
        "Longitude(deg)": 84.77277387113081,
        "Mean Anomaly(deg)": 148.52636240711345,
        "RAAN(deg)": 24.998962459845053,
        "Satellite Name": "Starlink Shell 1 119",
        "Satellite Number": 119,
        "Semi-Major Axis(m)": 6931778.249405717,
        "Time(s)": 20
    },
    {
        "Altitude(m)": 554241.8232373626,
        "Argument of Periapsis(deg)": 0.0010457354385337105,
        "Eccentricity": 0.0,
        "Inclination(deg)": 53.0,
        "Latitude(deg)": 24.237309656373878,
        "Longitude(deg)": 85.18580079702298,
        "Mean Anomaly(deg)": 149.15319361067014,
        "RAAN(deg)": 24.998443689767583,
        "Satellite Name": "Starlink Shell 1 119",
        "Satellite Number": 119,
        "Semi-Major Axis(m)": 6931778.249405717,
        "Time(s)": 30
    },
    {
        "Altitude(m)": 554186.7078535571,
        "Argument of Periapsis(deg)": 0.0013943139180449475,
        "Eccentricity": 0.0,
        "Inclination(deg)": 53.0,
        "Latitude(deg)": 23.76283938565176,
        "Longitude(deg)": 85.59547866191897,
        "Mean Anomaly(deg)": 149.78002481422686,
        "RAAN(deg)": 24.99792491969011,
        "Satellite Name": "Starlink Shell 1 119",
        "Satellite Number": 119,
        "Semi-Major Axis(m)": 6931778.249405717,
        "Time(s)": 40
    },
    {
        "Altitude(m)": 554133.3322818964,
        "Argument of Periapsis(deg)": 0.0017428923975561844,
        "Eccentricity": 0.0,
        "Inclination(deg)": 53.0,
        "Latitude(deg)": 23.287034336296937,
        "Longitude(deg)": 86.00189575053768,
        "Mean Anomaly(deg)": 150.40685601778355,
        "RAAN(deg)": 24.997406149612633,
        "Satellite Name": "Starlink Shell 1 119",
        "Satellite Number": 119,
        "Semi-Major Axis(m)": 6931778.249405717,
        "Time(s)": 50
    },
    {
        "Altitude(m)": 554081.7428176382,
        "Argument of Periapsis(deg)": 0.002091470877067421,
        "Eccentricity": 0.0,
        "Inclination(deg)": 53.0,
        "Latitude(deg)": 22.809933275133815,
        "Longitude(deg)": 86.40513911982818,
        "Mean Anomaly(deg)": 151.0336872213403,
        "RAAN(deg)": 24.996887379535163,
        "Satellite Name": "Starlink Shell 1 119",
        "Satellite Number": 119,
        "Semi-Major Axis(m)": 6931778.249405717,
        "Time(s)": 60
    },
    {
        "Altitude(m)": 554031.9850275808,
        "Argument of Periapsis(deg)": 0.0024400493565786582,
        "Eccentricity": 0.0,
        "Inclination(deg)": 53.0,
        "Latitude(deg)": 22.331574210916465,
        "Longitude(deg)": 86.8052951221228,
        "Mean Anomaly(deg)": 151.660518424897,
        "RAAN(deg)": 24.996368609457694,
        "Satellite Name": "Starlink Shell 1 119",
        "Satellite Number": 119,
        "Semi-Major Axis(m)": 6931778.249405717,
        "Time(s)": 70
    },
    {
        "Altitude(m)": 553984.1037251761,
        "Argument of Periapsis(deg)": 0.002788627836089895,
        "Eccentricity": 0.0,
        "Inclination(deg)": 53.0,
        "Latitude(deg)": 21.8519944188123,
        "Longitude(deg)": 87.2024484165308,
        "Mean Anomaly(deg)": 152.2873496284537,
        "RAAN(deg)": 24.995849839380217,
        "Satellite Name": "Starlink Shell 1 119",
        "Satellite Number": 119,
        "Semi-Major Axis(m)": 6931778.249405717,
        "Time(s)": 80
    },
    {
        "Altitude(m)": 553938.1429460254,
        "Argument of Periapsis(deg)": 0.0031372063156011316,
        "Eccentricity": 0.0,
        "Inclination(deg)": 53.0,
        "Latitude(deg)": 21.371230464363435,
        "Longitude(deg)": 87.59668249420494,
        "Mean Anomaly(deg)": 152.91418083201043,
        "RAAN(deg)": 24.995331069302747,
        "Satellite Name": "Starlink Shell 1 119",
        "Satellite Number": 119,
        "Semi-Major Axis(m)": 6931778.249405717,
        "Time(s)": 90
    },
    {
        "Altitude(m)": 553894.1459236367,
        "Argument of Periapsis(deg)": 0.0034857847951123688,
        "Eccentricity": 0.0,
        "Inclination(deg)": 53.0,
        "Latitude(deg)": 20.88931822693092,
        "Longitude(deg)": 87.98808020450163,
        "Mean Anomaly(deg)": 153.54101203556715,
        "RAAN(deg)": 24.99481229922527,
        "Satellite Name": "Starlink Shell 1 119",
        "Satellite Number": 119,
        "Semi-Major Axis(m)": 6931778.249405717,
        "Time(s)": 100
    },
    {
        "Altitude(m)": 553852.1550656715,
        "Argument of Periapsis(deg)": 0.003834363274623606,
        "Eccentricity": 0.0,
        "Inclination(deg)": 53.0,
        "Latitude(deg)": 20.406292922627745,
        "Longitude(deg)": 88.37672276905958,
        "Mean Anomaly(deg)": 154.16784323912384,
        "RAAN(deg)": 24.9942935291478,
        "Satellite Name": "Starlink Shell 1 119",
        "Satellite Number": 119,
        "Semi-Major Axis(m)": 6931778.249405717,
        "Time(s)": 110
    },
    {
        "Altitude(m)": 553812.2119304619,
        "Argument of Periapsis(deg)": 0.004182941754134842,
        "Eccentricity": 0.0,
        "Inclination(deg)": 53.0,
        "Latitude(deg)": 19.92218912674907,
        "Longitude(deg)": 88.76269030945666,
        "Mean Anomaly(deg)": 154.79467444268056,
        "RAAN(deg)": 24.99377475907033,
        "Satellite Name": "Starlink Shell 1 119",
        "Satellite Number": 119,
        "Semi-Major Axis(m)": 6931778.249405717,
        "Time(s)": 120
    },
    {
        "Altitude(m)": 553774.3572039816,
        "Argument of Periapsis(deg)": 0.004531520233646079,
        "Eccentricity": 0.0,
        "Inclination(deg)": 53.0,
        "Latitude(deg)": 19.43704079570773,
        "Longitude(deg)": 89.14606237548509,
        "Mean Anomaly(deg)": 155.42150564623728,
        "RAAN(deg)": 24.993255988992853,
        "Satellite Name": "Starlink Shell 1 119",
        "Satellite Number": 119,
        "Semi-Major Axis(m)": 6931778.249405717,
        "Time(s)": 130
    },
    {
        "Altitude(m)": 553738.6306772053,
        "Argument of Periapsis(deg)": 0.0048800987131573164,
        "Eccentricity": 0.0,
        "Inclination(deg)": 53.0,
        "Latitude(deg)": 18.950881288482634,
        "Longitude(deg)": 89.52691696109581,
        "Mean Anomaly(deg)": 156.048336849794,
        "RAAN(deg)": 24.992737218915384,
        "Satellite Name": "Starlink Shell 1 119",
        "Satellite Number": 119,
        "Semi-Major Axis(m)": 6931778.249405717,
        "Time(s)": 140
    },
    {
        "Altitude(m)": 553705.0712238792,
        "Argument of Periapsis(deg)": 0.005228677192668553,
        "Eccentricity": 0.0,
        "Inclination(deg)": 53.0,
        "Latitude(deg)": 18.46374338759164,
        "Longitude(deg)": 89.9053310336883,
        "Mean Anomaly(deg)": 156.67516805335072,
        "RAAN(deg)": 24.992218448837907,
        "Satellite Name": "Starlink Shell 1 119",
        "Satellite Number": 119,
        "Semi-Major Axis(m)": 6931778.249405717,
        "Time(s)": 150
    },
    {
        "Altitude(m)": 553673.7167787239,
        "Argument of Periapsis(deg)": 0.00557725567217979,
        "Eccentricity": 0.0,
        "Inclination(deg)": 53.0,
        "Latitude(deg)": 17.97565931959759,
        "Longitude(deg)": 90.2813810638082,
        "Mean Anomaly(deg)": 157.30199925690744,
        "RAAN(deg)": 24.991699678760437,
        "Satellite Name": "Starlink Shell 1 119",
        "Satellite Number": 119,
        "Semi-Major Axis(m)": 6931778.249405717,
        "Time(s)": 160
    },
    {
        "Altitude(m)": 553644.6043160999,
        "Argument of Periapsis(deg)": 0.0059258341516910265,
        "Eccentricity": 0.0,
        "Inclination(deg)": 53.0,
        "Latitude(deg)": 17.486660775158313,
        "Longitude(deg)": 90.6551420423189,
        "Mean Anomaly(deg)": 157.92883046046416,
        "RAAN(deg)": 24.99118090868296,
        "Satellite Name": "Starlink Shell 1 119",
        "Satellite Number": 119,
        "Semi-Major Axis(m)": 6931778.249405717,
        "Time(s)": 170
    },
    {
        "Altitude(m)": 553617.7698290824,
        "Argument of Periapsis(deg)": 0.006274412631202263,
        "Eccentricity": 0.0,
        "Inclination(deg)": 53.0,
        "Latitude(deg)": 16.996778928632295,
        "Longitude(deg)": 91.02668801074194,
        "Mean Anomaly(deg)": 158.55566166402087,
        "RAAN(deg)": 24.99066213860549,
        "Satellite Name": "Starlink Shell 1 119",
        "Satellite Number": 119,
        "Semi-Major Axis(m)": 6931778.249405717,
        "Time(s)": 180
    }
]